STARLINK-2022           
1 47643U 21012Z   24279.59267280  .00044689  00000+0  29981-2 0  9994
2 47643  53.0542 226.4232 0001254  94.1255 265.9878 15.06424842201356
